BEESAT-4                
1 41619U 16040W   21263.55492154  .00002522  00000-0  10062-3 0  9994
2 41619  97.2604 316.9622 0010357   5.2756 354.8590 15.26033443279510
CAS-2T & KS-1Q          
1 41847U 16066G   21263.78646478  .00000081  00000-0  23472-4 0  9998
2 41847  98.5920 323.2661 0364029 295.8829  60.5252 14.38237112255586
NAYIF-1 (EO-88)         
1 42017U 17008BX  21263.22735325  .00003080  00000-0  11279-3 0  9997
2 42017  97.3081 329.1221 0007326 124.4915 235.7018 15.28750728255731
ZHUHAI-1 02 (CAS-4B)    
1 42759U 17034B   21263.80351329  .00000700  00000-0  55191-4 0  9999
2 42759  43.0187  16.8232 0007573  31.4118 104.3518 15.10373452235568
ZHUHAI-1 01 (CAS-4A)    
1 42761U 17034D   21263.78911573  .00000808  00000-0  61506-4 0  9998
2 42761  43.0195  15.8855 0007740  33.6506 103.0668 15.10462520235568
MAX VALIER SAT          
1 42778U 17036P   21263.91747728  .00001587  00000-0  68372-4 0  9995
2 42778  97.2462 309.3705 0011389 190.9711 169.1280 15.23944189235820
RADFXSAT (FOX-1B)       
1 43017U 17073E   21263.55059582  .00001392  00000-0  11197-3 0  9993
2 43017  97.6958 163.7244 0254213 350.4142   9.2267 14.79747080207185
FOX-1D (AO-92)          
1 43137U 18004AC  21263.77633552  .00001923  00000-0  78422-4 0  9995
2 43137  97.4002 336.8209 0007452 227.2117 132.8495 15.25633455205191
DIWATA-2B               
1 43678U 18084H   21263.83512316 -.00000074  00000-0 -15526-5 0  9999
2 43678  97.9353  29.6721 0011239  95.2945 264.9568 14.91787798157658
ES'HAIL 2               
1 43700U 18090A   21263.81123034  .00000125  00000-0  00000-0 0  9996
2 43700   0.0222 250.9861 0002369 313.2765 113.5048  1.00271971 10326
FOX-1CLIFF (AO-95)      
1 43770U 18099N   21263.13377485  .00000824  00000-0  79474-4 0  9999
2 43770  97.6573 331.1973 0016042 100.8576 259.4451 14.95428522152603
ITASAT 1                
1 43786U 18099AE  21263.43621608 -.00000015  00000-0  37802-5 0  9991
2 43786  97.6596 332.2371 0016622  93.0031 267.3093 14.95711093152688
JY1SAT (JO-97)          
1 43803U 18099AX  21263.91887021  .00000368  00000-0  37837-4 0  9994
2 43803  97.6552 332.4512 0016429  91.7305 268.5798 14.95976806152762
UWE-4                   
1 43880U 18111E   21263.57093692  .00000626  00000-0  59372-4 0  9994
2 43880  97.6785 169.6465 0013101 138.3950 221.8271 14.96989390147316
NEXUS (FO-99)           
1 43937U 19003F   21263.53623510  .00002334  00000-0  92215-4 0  9993
2 43937  97.1685 302.8904 0023911  39.0998 321.1964 15.26209045148760
PSAT2 (NO-104)          
1 44354U 19036R   21263.22321202  .00010882  00000-0  13611-3 0  9991
2 44354  28.5281 213.7092 0313821 225.9824 131.4505 15.16538334123354
BRICSAT2 (NO-103)       
1 44355U 19036S   21263.04833429  .00036548 -60230-5  34759-3 0  9991
2 44355  28.5267 152.5899 0238973 325.5715  32.9607 15.36274375123952
JAISAT-1                
1 44419U 19038F   21263.88247760  .00001803  00000-0  10236-3 0  9996
2 44419  97.5985 228.2980 0020587 348.1830  11.8915 15.14077861122232
DUCHIFAT-3              
1 44854U 19089C   21263.67845238  .00000678  00000-0  60345-4 0  9992
2 44854  36.9673 257.4425 0007910 197.4180 162.6291 14.99629767 97404
CAS-6 (TO-108)          
1 44881U 19093C   21263.90380507  .00000046  00000-0  12692-4 0  9997
2 44881  97.9188 341.6707 0014902 348.3351  11.7495 14.81480977 94863
RS-44 & BREEZE-KM R/B   
1 44909U 19096E   21263.85282949  .00000012  00000-0  66811-5 0  9992
2 44909  82.5218  49.4085 0216697 229.8874 128.3061 12.79711071 81023
ORBITAL FACTORY 2 (OF-2)
1 45113U 19071C   21263.45215247  .00003556  00000-0  10867-3 0  9990
2 45113  51.6413 296.6486 0011013 279.4684  80.5054 15.36567544 91775
HUSKYSAT-1 (HO-107)     
1 45119U 19071J   21263.78881070  .00002583  00000-0  82003-4 0  9996
2 45119  51.6406 294.3880 0010444 277.0723  82.9072 15.36533698 91826
BY70-2                  
1 45857U 20042B   21263.95308138  .00001357  00000-0  19842-3 0  9991
2 45857  97.9792 338.7036 0009396 262.3205  97.6910 14.77290342 65643
SALSAT                  
1 46495U 20068K   21263.89787148  .00001073  00000-0  82885-4 0  9996
2 46495  97.6972 200.8522 0018274 108.5715 251.7496 15.03559300 53674
BY70-3                  
1 46839U 20079N   21263.87950792  .00004196  00000-0  12822-3 0  9997
2 46839  97.2337 335.8503 0006243 210.2251 239.7595 15.34404510 48838
RADFXSAT-2 (AO-109)     
1 47311U 21002C   21263.62577128  .00001620  00000-0  80871-4 0  9990
2 47311  60.6852 294.8338 0042110  96.0009 264.5879 15.22005082 37358
UVSQ-SAT                
1 47438U 21006AB  21263.40297993  .00001171  00000-0  69142-4 0  9998
2 47438  97.4786 322.8944 0014024 126.4728 233.7798 15.13371063 36415
DIY-1 (ARDUIQUBE)       
1 47963U 21022AH  21263.54740402  .00003325  00000-0  22084-3 0  9998
2 47963  97.5481 164.1784 0019361 345.3419  14.7245 15.07747760 26224
